{"type": "FeatureCollection", "features": [ {"type": "Feature", "properties": {"norad_id": 38552, "name": "METEOSAT-10 (MSG-3)", "group": "weather", "lat": 3.9239030405954094, "lon": 130.24518493402263, "alt_km": 35788.14590127207, "timestamp": "2025-12-04T03:47:54.197311+00:00", "meta": {"OBJECT_NAME": "METEOSAT-10 (MSG-3)", "OBJECT_ID": "2012-035B", "EPOCH": "2025-12-03T01:46:14.361312", "MEAN_MOTION": 1.00272334, "ECCENTRICITY": 7.5e-05, "INCLINATION": 4.2044, "RA_OF_ASC_NODE": 61.7366, "ARG_OF_PERICENTER": 219.9554, "MEAN_ANOMALY": 177.1386, "EPHEMERIS_TYPE": 0, "CLASSIFICATION_TYPE": "U", "NORAD_CAT_ID": 38552, "ELEMENT_SET_NO": 999, "REV_AT_EPOCH": 4889, "BSTAR": 0, "MEAN_MOTION_DOT": 1.1e-07, "MEAN_MOTION_DDOT": 0}, "tle": {"line1": "1 38552U 12035B   25337.07377733  .00000011  00000+0  00000+0 0  9991", "line2": "2 38552   4.2044  61.7366 0000750 219.9554 177.1386  1.00272334 48899"}}, "geometry": {"type": "Point", "coordinates": [130.24518493402263, 3.9239030405954094]}}, {"type": "Feature", "properties": {"norad_id": 38771, "name": "METOP-B", "group": "weather", "lat": 58.20350633561804, "lon": -137.47042062270313, "alt_km": 813.6396801277469, "timestamp": "2025-12-04T03:47:54.197322+00:00", "meta": {"OBJECT_NAME": "METOP-B", "OBJECT_ID": "2012-049A", "EPOCH": "2025-12-03T10:20:18.292128", "MEAN_MOTION": 14.21402737, "ECCENTRICITY": 0.0002494, "INCLINATION": 98.6813, "RA_OF_ASC_NODE": 27.5468, "ARG_OF_PERICENTER": 165.2397, "MEAN_ANOMALY": 194.8854, "EPHEMERIS_TYPE": 0, "CLASSIFICATION_TYPE": "U", "NORAD_CAT_ID": 38771, "ELEMENT_SET_NO": 999, "REV_AT_EPOCH": 68545, "BSTAR": 0.00012743, "MEAN_MOTION_DOT": 2.35e-06, "MEAN_MOTION_DDOT": 0}, "tle": {"line1": "1 38771U 12049A   25337.43076727  .00000235  00000+0  12743-3 0  9997", "line2": "2 38771  98.6813  27.5468 0002494 165.2397 194.8854 14.21402737685455"}}, "geometry": {"type": "Point", "coordinates": [-137.47042062270313, 58.20350633561804]}}, {"type": "Feature", "properties": {"norad_id": 39216, "name": "INSAT-3D", "group": "weather", "lat": 0.10837538911314117, "lon": -100.27644887848562, "alt_km": 35778.61268624079, "timestamp": "2025-12-04T03:47:54.197335+00:00", "meta": {"OBJECT_NAME": "INSAT-3D", "OBJECT_ID": "2013-038B", "EPOCH": "2025-12-03T10:56:51.856800", "MEAN_MOTION": 1.00273796, "ECCENTRICITY": 0.0001753, "INCLINATION": 1.4189, "RA_OF_ASC_NODE": 85.096, "ARG_OF_PERICENTER": 154.7686, "MEAN_ANOMALY": 126.4141, "EPHEMERIS_TYPE": 0, "CLASSIFICATION_TYPE": "U", "NORAD_CAT_ID": 39216, "ELEMENT_SET_NO": 999, "REV_AT_EPOCH": 4511, "BSTAR": 0, "MEAN_MOTION_DOT": -3.21e-06, "MEAN_MOTION_DDOT": 0}, "tle": {"line1": "1 39216U 13038B   25337.45615575 -.00000321  00000+0  00000+0 0  9999", "line2": "2 39216   1.4189  85.0960 0001753 154.7686 126.4141  1.00273796 45112"}}, "geometry": {"type": "Point", "coordinates": [-100.27644887848562, 0.10837538911314117]}}, {"type": "Feature", "properties": {"norad_id": 39260, "name": "FENGYUN 3C", "group": "weather", "lat": -4.021195458022446, "lon": 135.65642889122327, "alt_km": 835.4947900695024, "timestamp": "2025-12-04T03:47:54.197346+00:00", "meta": {"OBJECT_NAME": "FENGYUN 3C", "OBJECT_ID": "2013-052A", "EPOCH": "2025-12-03T20:08:46.620672", "MEAN_MOTION": 14.15691845, "ECCENTRICITY": 0.0013847, "INCLINATION": 98.4754, "RA_OF_ASC_NODE": 315.9538, "ARG_OF_PERICENTER": 222.8001, "MEAN_ANOMALY": 137.2097, "EPHEMERIS_TYPE": 0, "CLASSIFICATION_TYPE": "U", "NORAD_CAT_ID": 39260, "ELEMENT_SET_NO": 999, "REV_AT_EPOCH": 63092, "BSTAR": 0.00012286, "MEAN_MOTION_DOT": 2e-06, "MEAN_MOTION_DDOT": 0}, "tle": {"line1": "1 39260U 13052A   25337.83942848  .00000200  00000+0  12286-3 0  9990", "line2": "2 39260  98.4754 315.9538 0013847 222.8001 137.2097 14.15691845630924"}}, "geometry": {"type": "Point", "coordinates": [135.65642889122327, -4.021195458022446]}}, {"type": "Feature", "properties": {"norad_id": 40069, "name": "METEOR-M 2", "group": "weather", "lat": -10.120430952647443, "lon": -42.40015317004479, "alt_km": 826.0701312976298, "timestamp": "2025-12-04T03:47:54.197357+00:00", "meta": {"OBJECT_NAME": "METEOR-M 2", "OBJECT_ID": "2014-037A", "EPOCH": "2025-12-03T21:05:18.962016", "MEAN_MOTION": 14.21380946, "ECCENTRICITY": 0.0004715, "INCLINATION": 98.4893, "RA_OF_ASC_NODE": 315.8034, "ARG_OF_PERICENTER": 239.2368, "MEAN_ANOMALY": 120.8346, "EPHEMERIS_TYPE": 0, "CLASSIFICATION_TYPE": "U", "NORAD_CAT_ID": 40069, "ELEMENT_SET_NO": 999, "REV_AT_EPOCH": 59157, "BSTAR": 0.00013194, "MEAN_MOTION_DOT": 2.46e-06, "MEAN_MOTION_DDOT": 0}, "tle": {"line1": "1 40069U 14037A   25337.87869169  .00000246  00000+0  13194-3 0  9990", "line2": "2 40069  98.4893 315.8034 0004715 239.2368 120.8346 14.21380946591575"}}, "geometry": {"type": "Point", "coordinates": [-42.40015317004479, -10.120430952647443]}}, {"type": "Feature", "properties": {"norad_id": 40267, "name": "HIMAWARI-8", "group": "weather", "lat": 0.006836936079392425, "lon": -89.13548627511224, "alt_km": 35781.30617881049, "timestamp": "2025-12-04T03:47:54.197374+00:00", "meta": {"OBJECT_NAME": "HIMAWARI-8", "OBJECT_ID": "2014-060A", "EPOCH": "2025-12-03T18:51:33.971040", "MEAN_MOTION": 1.00270422, "ECCENTRICITY": 0.0001266, "INCLINATION": 0.0059, "RA_OF_ASC_NODE": 94.3673, "ARG_OF_PERICENTER": 190.2827, "MEAN_ANOMALY": 211.7912, "EPHEMERIS_TYPE": 0, "CLASSIFICATION_TYPE": "U", "NORAD_CAT_ID": 40267, "ELEMENT_SET_NO": 999, "REV_AT_EPOCH": 4080, "BSTAR": 0, "MEAN_MOTION_DOT": -2.58e-06, "MEAN_MOTION_DDOT": 0}, "tle": {"line1": "1 40267U 14060A   25337.78580985 -.00000258  00000+0  00000+0 0  9994", "line2": "2 40267   0.0059  94.3673 0001266 190.2827 211.7912  1.00270422 40804"}}, "geometry": {"type": "Point", "coordinates": [-89.13548627511224, 0.006836936079392425]}}, {"type": "Feature", "properties": {"norad_id": 40367, "name": "FENGYUN 2G", "group": "weather", "lat": 2.1712905655948647, "lon": -130.02867852020535, "alt_km": 35776.86554988322, "timestamp": "2025-12-04T03:47:54.197387+00:00", "meta": {"OBJECT_NAME": "FENGYUN 2G", "OBJECT_ID": "2014-090A", "EPOCH": "2025-12-03T19:21:58.999968", "MEAN_MOTION": 1.00267296, "ECCENTRICITY": 0.0003112, "INCLINATION": 5.1439, "RA_OF_ASC_NODE": 75.201, "ARG_OF_PERICENTER": 193.8463, "MEAN_ANOMALY": 194.0504, "EPHEMERIS_TYPE": 0, "CLASSIFICATION_TYPE": "U", "NORAD_CAT_ID": 40367, "ELEMENT_SET_NO": 999, "REV_AT_EPOCH": 4004, "BSTAR": 0, "MEAN_MOTION_DOT": -2.88e-06, "MEAN_MOTION_DDOT": 0}, "tle": {"line1": "1 40367U 14090A   25337.80693287 -.00000288  00000+0  00000+0 0  9994", "line2": "2 40367   5.1439  75.2010 0003112 193.8463 194.0504  1.00267296 40044"}}, "geometry": {"type": "Point", "coordinates": [-130.02867852020535, 2.1712905655948647]}}, {"type": "Feature", "properties": {"norad_id": 40732, "name": "METEOSAT-11 (MSG-4)", "group": "weather", "lat": 2.5134950127183724, "lon": 139.65911870603168, "alt_km": 35784.0942456266, "timestamp": "2025-12-04T03:47:54.197399+00:00", "meta": {"OBJECT_NAME": "METEOSAT-11 (MSG-4)", "OBJECT_ID": "2015-034A", "EPOCH": "2025-12-03T13:48:01.944000", "MEAN_MOTION": 1.0027785, "ECCENTRICITY": 2.41e-05, "INCLINATION": 2.7126, "RA_OF_ASC_NODE": 72.0252, "ARG_OF_PERICENTER": 162.3253, "MEAN_ANOMALY": 54.7965, "EPHEMERIS_TYPE": 0, "CLASSIFICATION_TYPE": "U", "NORAD_CAT_ID": 40732, "ELEMENT_SET_NO": 999, "REV_AT_EPOCH": 525, "BSTAR": 0, "MEAN_MOTION_DOT": 8.1e-07, "MEAN_MOTION_DDOT": 0}, "tle": {"line1": "1 40732U 15034A   25337.57502250  .00000081  00000+0  00000+0 0  9992", "line2": "2 40732   2.7126  72.0252 0000241 162.3253  54.7965  1.00277850  5251"}}, "geometry": {"type": "Point", "coordinates": [139.65911870603168, 2.5134950127183724]}}, {"type": "Feature", "properties": {"norad_id": 41105, "name": "ELEKTRO-L 2", "group": "weather", "lat": 4.220435585417781, "lon": 115.4837656576008, "alt_km": 35801.40286949967, "timestamp": "2025-12-04T03:47:54.197411+00:00", "meta": {"OBJECT_NAME": "ELEKTRO-L 2", "OBJECT_ID": "2015-074A", "EPOCH": "2025-12-03T15:43:47.950176", "MEAN_MOTION": 1.00269801, "ECCENTRICITY": 0.0003998, "INCLINATION": 6.2011, "RA_OF_ASC_NODE": 72.9341, "ARG_OF_PERICENTER": 197.5531, "MEAN_ANOMALY": 23.6802, "EPHEMERIS_TYPE": 0, "CLASSIFICATION_TYPE": "U", "NORAD_CAT_ID": 41105, "ELEMENT_SET_NO": 999, "REV_AT_EPOCH": 3654, "BSTAR": 0, "MEAN_MOTION_DOT": -1.03e-06, "MEAN_MOTION_DDOT": 0}, "tle": {"line1": "1 41105U 15074A   25337.65541609 -.00000103  00000+0  00000+0 0  9997", "line2": "2 41105   6.2011  72.9341 0003998 197.5531  23.6802  1.00269801 36545"}}, "geometry": {"type": "Point", "coordinates": [115.4837656576008, 4.220435585417781]}}, {"type": "Feature", "properties": {"norad_id": 41752, "name": "INSAT-3DR", "group": "weather", "lat": 0.030773187632182418, "lon": -155.93493147292273, "alt_km": 35760.54725988562, "timestamp": "2025-12-04T03:47:54.197423+00:00", "meta": {"OBJECT_NAME": "INSAT-3DR", "OBJECT_ID": "2016-054A", "EPOCH": "2025-12-03T20:11:36.471840", "MEAN_MOTION": 1.00269576, "ECCENTRICITY": 0.0014499, "INCLINATION": 0.069, "RA_OF_ASC_NODE": 88.9534, "ARG_OF_PERICENTER": 180.1514, "MEAN_ANOMALY": 180.7502, "EPHEMERIS_TYPE": 0, "CLASSIFICATION_TYPE": "U", "NORAD_CAT_ID": 41752, "ELEMENT_SET_NO": 999, "REV_AT_EPOCH": 3386, "BSTAR": 0, "MEAN_MOTION_DOT": -6e-07, "MEAN_MOTION_DDOT": 0}, "tle": {"line1": "1 41752U 16054A   25337.84139435 -.00000060  00000+0  00000+0 0  9997", "line2": "2 41752   0.0690  88.9534 0014499 180.1514 180.7502  1.00269576 33869"}}, "geometry": {"type": "Point", "coordinates": [-155.93493147292273, 0.030773187632182418]}}]}